IRIDIUM 173             
1 43925U 19002D   26073.92943160  .00000083  00000+0  22593-4 0  9992
2 43925  86.3981  32.9424 0002034  84.6868 275.4560 14.34218055375448
IRIDIUM 169             
1 43926U 19002E   26073.93461761  .00000113  00000+0  30290-4 0  9993
2 43926  86.4176  64.5910 0001507  88.9379 271.1992 14.38606548376675
IRIDIUM 172             
1 43927U 19002F   26073.92308720  .00000188  00000+0  60114-4 0  9998
2 43927  86.3981  32.9523 0002279  83.9516 276.1940 14.34218853375450
IRIDIUM 175             
1 43928U 19002G   26073.95122392  .00001006  00000+0  15556-3 0  9990
2 43928  86.1534 330.1653 0002802 102.5730 257.5800 14.72241037385370
IRIDIUM 171             
1 43929U 19002H   26073.90406195  .00000014  00000+0 -20619-5 0  9999
2 43929  86.3989  33.2566 0002066  92.0427 268.1006 14.34217615375445
IRIDIUM 170             
1 43930U 19002J   26073.89397751  .00001142  00000+0  17719-3 0  9993
2 43930  86.6102  32.9491 0002626  87.1109 273.0409 14.72248292385387
IRIDIUM 167             
1 43931U 19002K   26073.89771900 -.00000044  00000+0 -22809-4 0  9995
2 43931  86.3982  32.9851 0001896  95.0086 265.1326 14.34217215375446
IRIDIUM 181             
1 56726U 23068S   26073.61049362  .00000208  00000+0  55705-4 0  9999
2 56726  86.4447  96.3401 0002620  92.1426 268.0075 14.43309173148790
IRIDIUM 177             
1 56727U 23068T   26073.88316415  .00001620  00000+0  20974-3 0  9993
2 56727  86.2009  13.5587 0002192  75.8432 284.3032 14.80225688152415
IRIDIUM 174             
1 56728U 23068U   26073.94956801  .00001603  00000+0  25034-3 0  9993
2 56728  86.6113  33.0641 0002592  78.6554 281.4954 14.72253785152156
IRIDIUM 178             
1 56729U 23068V   26073.93984402  .00000628  00000+0  79199-4 0  9999
2 56729  86.6492  64.7407 0002578  98.5032 261.6481 14.80231361152424
IRIDIUM 179             
1 56730U 23068W   26073.93446634  .00001238  00000+0  15945-3 0  9997
2 56730  86.6726  73.4494 0002376  95.3890 264.7603 14.80230275152425
