[{"OBJECT_NAME":"IRIDIUM 173","OBJECT_ID":"2019-002D","EPOCH":"2026-03-14T22:18:22.890240","MEAN_MOTION":14.34218055,"ECCENTRICITY":0.00020346,"INCLINATION":86.3981,"RA_OF_ASC_NODE":32.9424,"ARG_OF_PERICENTER":84.6868,"MEAN_ANOMALY":275.456,"EPHEMERIS_TYPE":0,"CLASSIFICATION_TYPE":"U","NORAD_CAT_ID":43925,"ELEMENT_SET_NO":999,"REV_AT_EPOCH":37544,"BSTAR":2.259296e-5,"MEAN_MOTION_DOT":8.3e-7,"MEAN_MOTION_DDOT":0},{"OBJECT_NAME":"IRIDIUM 169","OBJECT_ID":"2019-002E","EPOCH":"2026-03-14T22:25:50.961504","MEAN_MOTION":14.38606548,"ECCENTRICITY":0.00015074,"INCLINATION":86.4176,"RA_OF_ASC_NODE":64.591,"ARG_OF_PERICENTER":88.9379,"MEAN_ANOMALY":271.1992,"EPHEMERIS_TYPE":0,"CLASSIFICATION_TYPE":"U","NORAD_CAT_ID":43926,"ELEMENT_SET_NO":999,"REV_AT_EPOCH":37667,"BSTAR":3.0290233e-5,"MEAN_MOTION_DOT":1.13e-6,"MEAN_MOTION_DDOT":0},{"OBJECT_NAME":"IRIDIUM 172","OBJECT_ID":"2019-002F","EPOCH":"2026-03-14T22:09:14.734080","MEAN_MOTION":14.34218853,"ECCENTRICITY":0.00022792,"INCLINATION":86.3981,"RA_OF_ASC_NODE":32.9523,"ARG_OF_PERICENTER":83.9516,"MEAN_ANOMALY":276.194,"EPHEMERIS_TYPE":0,"CLASSIFICATION_TYPE":"U","NORAD_CAT_ID":43927,"ELEMENT_SET_NO":999,"REV_AT_EPOCH":37545,"BSTAR":6.0114338e-5,"MEAN_MOTION_DOT":1.88e-6,"MEAN_MOTION_DDOT":0},{"OBJECT_NAME":"IRIDIUM 175","OBJECT_ID":"2019-002G","EPOCH":"2026-03-14T22:49:45.746688","MEAN_MOTION":14.72241037,"ECCENTRICITY":0.00028025,"INCLINATION":86.1534,"RA_OF_ASC_NODE":330.1653,"ARG_OF_PERICENTER":102.573,"MEAN_ANOMALY":257.58,"EPHEMERIS_TYPE":0,"CLASSIFICATION_TYPE":"U","NORAD_CAT_ID":43928,"ELEMENT_SET_NO":999,"REV_AT_EPOCH":38537,"BSTAR":0.00015555685,"MEAN_MOTION_DOT":1.006e-5,"MEAN_MOTION_DDOT":0},{"OBJECT_NAME":"IRIDIUM 171","OBJECT_ID":"2019-002H","EPOCH":"2026-03-14T21:41:50.952480","MEAN_MOTION":14.34217615,"ECCENTRICITY":0.00020669,"INCLINATION":86.3989,"RA_OF_ASC_NODE":33.2566,"ARG_OF_PERICENTER":92.0427,"MEAN_ANOMALY":268.1006,"EPHEMERIS_TYPE":0,"CLASSIFICATION_TYPE":"U","NORAD_CAT_ID":43929,"ELEMENT_SET_NO":999,"REV_AT_EPOCH":37544,"BSTAR":-2.061921e-6,"MEAN_MOTION_DOT":1.4e-7,"MEAN_MOTION_DDOT":0},{"OBJECT_NAME":"IRIDIUM 170","OBJECT_ID":"2019-002J","EPOCH":"2026-03-14T21:27:19.656864","MEAN_MOTION":14.72248292,"ECCENTRICITY":0.00026269,"INCLINATION":86.6102,"RA_OF_ASC_NODE":32.9491,"ARG_OF_PERICENTER":87.1109,"MEAN_ANOMALY":273.0409,"EPHEMERIS_TYPE":0,"CLASSIFICATION_TYPE":"U","NORAD_CAT_ID":43930,"ELEMENT_SET_NO":999,"REV_AT_EPOCH":38538,"BSTAR":0.00017719015,"MEAN_MOTION_DOT":1.142e-5,"MEAN_MOTION_DDOT":0},{"OBJECT_NAME":"IRIDIUM 167","OBJECT_ID":"2019-002K","EPOCH":"2026-03-14T21:32:42.921600","MEAN_MOTION":14.34217215,"ECCENTRICITY":0.00018962,"INCLINATION":86.3982,"RA_OF_ASC_NODE":32.9851,"ARG_OF_PERICENTER":95.0086,"MEAN_ANOMALY":265.1326,"EPHEMERIS_TYPE":0,"CLASSIFICATION_TYPE":"U","NORAD_CAT_ID":43931,"ELEMENT_SET_NO":999,"REV_AT_EPOCH":37544,"BSTAR":-2.280925e-5,"MEAN_MOTION_DOT":-4.4e-7,"MEAN_MOTION_DDOT":0},{"OBJECT_NAME":"IRIDIUM 181","OBJECT_ID":"2023-068S","EPOCH":"2026-03-14T14:39:06.648768","MEAN_MOTION":14.43309173,"ECCENTRICITY":0.00026207,"INCLINATION":86.4447,"RA_OF_ASC_NODE":96.3401,"ARG_OF_PERICENTER":92.1426,"MEAN_ANOMALY":268.0075,"EPHEMERIS_TYPE":0,"CLASSIFICATION_TYPE":"U","NORAD_CAT_ID":56726,"ELEMENT_SET_NO":999,"REV_AT_EPOCH":14879,"BSTAR":5.5705441e-5,"MEAN_MOTION_DOT":2.08e-6,"MEAN_MOTION_DDOT":0},{"OBJECT_NAME":"IRIDIUM 177","OBJECT_ID":"2023-068T","EPOCH":"2026-03-14T21:11:45.382560","MEAN_MOTION":14.80225688,"ECCENTRICITY":0.00021927,"INCLINATION":86.2009,"RA_OF_ASC_NODE":13.5587,"ARG_OF_PERICENTER":75.8432,"MEAN_ANOMALY":284.3032,"EPHEMERIS_TYPE":0,"CLASSIFICATION_TYPE":"U","NORAD_CAT_ID":56727,"ELEMENT_SET_NO":999,"REV_AT_EPOCH":15241,"BSTAR":0.0002097448,"MEAN_MOTION_DOT":1.62e-5,"MEAN_MOTION_DDOT":0},{"OBJECT_NAME":"IRIDIUM 174","OBJECT_ID":"2023-068U","EPOCH":"2026-03-14T22:47:22.676064","MEAN_MOTION":14.72253785,"ECCENTRICITY":0.00025923,"INCLINATION":86.6113,"RA_OF_ASC_NODE":33.0641,"ARG_OF_PERICENTER":78.6554,"MEAN_ANOMALY":281.4954,"EPHEMERIS_TYPE":0,"CLASSIFICATION_TYPE":"U","NORAD_CAT_ID":56728,"ELEMENT_SET_NO":999,"REV_AT_EPOCH":15215,"BSTAR":0.00025033892,"MEAN_MOTION_DOT":1.603e-5,"MEAN_MOTION_DDOT":0},{"OBJECT_NAME":"IRIDIUM 178","OBJECT_ID":"2023-068V","EPOCH":"2026-03-14T22:33:22.523328","MEAN_MOTION":14.80231361,"ECCENTRICITY":0.00025786,"INCLINATION":86.6492,"RA_OF_ASC_NODE":64.7407,"ARG_OF_PERICENTER":98.5032,"MEAN_ANOMALY":261.6481,"EPHEMERIS_TYPE":0,"CLASSIFICATION_TYPE":"U","NORAD_CAT_ID":56729,"ELEMENT_SET_NO":999,"REV_AT_EPOCH":15242,"BSTAR":7.9198547e-5,"MEAN_MOTION_DOT":6.28e-6,"MEAN_MOTION_DDOT":0},{"OBJECT_NAME":"IRIDIUM 179","OBJECT_ID":"2023-068W","EPOCH":"2026-03-14T22:25:37.891776","MEAN_MOTION":14.80230275,"ECCENTRICITY":0.0002376,"INCLINATION":86.6726,"RA_OF_ASC_NODE":73.4494,"ARG_OF_PERICENTER":95.389,"MEAN_ANOMALY":264.7603,"EPHEMERIS_TYPE":0,"CLASSIFICATION_TYPE":"U","NORAD_CAT_ID":56730,"ELEMENT_SET_NO":999,"REV_AT_EPOCH":15242,"BSTAR":0.00015945366,"MEAN_MOTION_DOT":1.238e-5,"MEAN_MOTION_DDOT":0}]
